ZHONGXING-6B            
1 31800U 07031A   25111.03933428 -.00000356  00000+0  00000+0 0  9998
2 31800   1.3063  86.7462 0003527 290.8929 321.2063  1.00273879 65236
ZHONGXING-9             
1 33051U 08028A   25110.89628385 -.00000243  00000+0  00000+0 0  9996
2 33051   0.0184 131.5702 0004487 275.8099 216.7160  1.00271040 61802
ZHEDA PIXING 1B         
1 37166U 10047B   25111.52591204  .00004466  00000+0  47980-3 0  9993
2 37166  97.8988  83.6636 0018981 226.8134 133.1497 14.88943583787978
ZHEDA PIXING 1C         
1 37167U 10047C   25111.51828191  .00003896  00000+0  42163-3 0  9995
2 37167  97.9307  85.5976 0018521 232.3239 127.6298 14.88731312787917
ZHONGXING-10            
1 37677U 11026A   25110.91150524 -.00000348  00000+0  00000+0 0  9990
2 37677   0.0494 267.9768 0001617 238.4083 141.5019  1.00274192 50762
ZIYUAN 1-02C (ZY 1-02C) 
1 38038U 11079A   25111.55139675  .00000927  00000+0  32274-3 0  9999
2 38038  98.4559 181.5763 0007600 123.9590 339.9672 14.37704282698669
ZIYUAN 3-1 (ZY 3-1)     
1 38046U 12001A   25111.52822302  .00028090  00000+0  48952-3 0  9998
2 38046  97.1998 176.0582 0005436 107.8818 252.3027 15.50690595738426
ZHONGXING-2A            
1 38352U 12028A   25110.90907259 -.00000288  00000+0  00000+0 0  9991
2 38352   0.3591  90.8435 0001517 340.4868 203.3795  1.00268220 47064
ZHONGXING-12            
1 39017U 12067A   25110.88378083 -.00000203  00000+0  00000+0 0  9994
2 39017   0.0217 129.9815 0002974 258.8994 225.9840  1.00273255 45277
ZHONGXING-11            
1 39157U 13020A   25110.90907259 -.00000287  00000+0  00000+0 0  9997
2 39157   0.0385  61.2378 0003875 281.0013 292.2078  1.00271065 43669
ZACUBE-1 (TSHEPISOSAT)  
1 39417U 13066B   25111.37085417  .00007660  00000+0  67359-3 0  9996
2 39417  97.7766  68.6782 0043164 214.0648 145.7802 14.96093237617553
ZHONGXING-2C            
1 41021U 15063A   25110.91011515 -.00000320  00000+0  00000+0 0  9999
2 41021   0.2026  90.3103 0002428  23.8425 166.1368  1.00271207 34767
ZIYUAN 3-2 (ZY 3-2)     
1 41556U 16033A   25111.51022753  .00012277  00000+0  54581-3 0  9993
2 41556  97.4201 189.2611 0005487 319.6342  40.4486 15.21640650493873
ZHUHAI-1 02 (CAS-4B)    
1 42759U 17034B   25111.49508612  .00083405  00000+0  11162-2 0  9999
2 42759  43.0084 253.0816 0019988 306.6303  53.2721 15.56809637434932
ZHUHAI-1 01 (CAS-4A)    
1 42761U 17034D   25111.49783049  .00086072  00000+0  11135-2 0  9994
2 42761  43.0120 250.6681 0021331 310.9850  48.9168 15.57666553434956
ZHANGHENG 1 (CSES)      
1 43194U 18015C   25111.52239849  .00017853  00000+0  80084-3 0  9994
2 43194  97.6432 264.9474 0008881 295.7528  64.2790 15.21230735400554
ZHUHAI-1 OVS-02         
1 43440U 18040B   25111.54946611  .00013083  00000+0  56846-3 0  9990
2 43440  97.0788 149.7218 0001235 320.2303  39.8844 15.22408622388593
ZHUHAI-1 OHS-02         
1 43441U 18040C   25111.49651983  .00015654  00000+0  62310-3 0  9999
2 43441  97.0853 153.6533 0011089 304.8255  55.1940 15.25277057388589
ZHONGXING-2D            
1 43920U 19001A   25110.88725275 -.00000333  00000+0  00000+0 0  9990
2 43920   0.0375  36.7362 0001328 120.3043 141.6123  1.00270622 49842
ZHONGXING-6C            
1 44067U 19012A   25110.88725275 -.00000331  00000+0  00000+0 0  9993
2 44067   0.0536  67.0476 0006639 323.9591 268.0510  1.00273021 22500
ZY-1 02D                
1 44528U 19059A   25111.49323477  .00000362  00000+0  14058-3 0  9997
2 44528  98.3702 181.5805 0000481   5.3868 354.7323 14.35455814293848
ZHUHAI-1 03A            
1 44534U 19060A   25111.52628866  .00121768  00000+0  12314-2 0  9996
2 44534  97.5128 254.5676 0005674 339.3704  20.7325 15.64894696311596
ZHUHAI-1 03B            
1 44536U 19060C   25111.52344923  .00028023  00000+0  93244-3 0  9999
2 44536  97.5093 251.2092 0013979  43.6102 316.6241 15.31023383311381
ZHUHAI-1 03C            
1 44537U 19060D   25111.47809282  .00038369  00000+0  97805-3 0  9999
2 44537  97.5356 253.0620 0019223  10.7114 349.4537 15.39247362311540
ZHUHAI-1 03D            
1 44538U 19060E   25111.47498105  .00025361  00000+0  91435-3 0  9999
2 44538  97.4918 246.4369 0012183  23.3175 336.8615 15.28453941311272
ZHUHAI-1 03E            
1 44539U 19060F   25111.52456028  .00023861  00000+0  93637-3 0  9993
2 44539  97.5115 248.5794 0012703  75.9803 284.2846 15.25654203311179
ZINYUAN-3               
1 45939U 20051A   25111.51988331  .00009398  00000+0  42313-3 0  9990
2 45939  97.3280 186.5063 0005902  75.8719 284.3173 15.21269220263248
ZHONGXING-2E            
1 49062U 21071A   25110.90907259 -.00000288  00000+0  00000+0 0  9999
2 49062   0.0414  47.7337 0002226  68.3222 158.5000  1.00272553 13804
Z-SAT                   
1 49399U 21102E   25111.51807458  .00007262  00000+0  40327-3 0  9993
2 49399  97.3860 154.5117 0016439 273.9823  85.9530 15.13901385189554
ZHONGXING-1D            
1 49505U 21114A   25111.20091201 -.00000332  00000+0  00000+0 0  9994
2 49505   0.0161 329.4947 0002070 229.9124 212.6100  1.00273540 12590
ZY-1 02E                
1 50465U 21131A   25111.48689988  .00000292  00000+0  11674-3 0  9992
2 50465  98.4775 191.6251 0000332  44.2248 315.8965 14.35368140173923
ZHONGXING-6D            
1 52255U 22038A   25110.07371859 -.00000348  00000+0  00000+0 0  9997
2 52255   0.0534 260.8648 0001388  72.3908  26.7430  1.00274024 11189
ZHONGXING-1E            
1 53813U 22112A   25110.88378083 -.00000145  00000+0  00000+0 0  9991
2 53813   0.0603  66.4042 0001022 264.2400 278.1327  1.00271110  9604
ZHONGXING-19            
1 54230U 22148A   25111.48655807 -.00000076  00000+0  00000+0 0  9996
2 54230   0.0142 260.5010 0005912 352.3544 295.4911  1.00272562  9139
ZHONGXING-26            
1 55686U 23023A   25110.91445918 -.00000349  00000+0  00000+0 0  9995
2 55686   0.0801  73.9077 0004365 349.6316 240.0511  1.00274920  7997
ZORKIY-2M 1             
1 57177U 23091M   25111.52677579  .00009208  00000+0  50370-3 0  9996
2 57177  97.5664 167.3652 0016776 137.4148 222.8388 15.14368105100054
ZHONGXING-6E            
1 58253U 23172A   25111.20094580 -.00000358  00000+0  00000+0 0  9991
2 58253   0.0488  65.4185 0002734 255.5496  76.4035  1.00273837  5423
ZORKIY-2M 2             
1 59064U 24039P   25111.51875695  .00059270  00000+0  98364-3 0  9993
2 59064  97.4268  82.3255 0011221 166.2598 193.8961 15.51855270 63994
ZHIHUI TIANWANG-1 01A   
1 59705U 24087A   25110.33571006  .00000014  00000+0  00000+0 0  9994
2 59705  53.1273 188.0007 0014337 201.1773 158.8213  2.00560297  6827
ZHIHUI TIANWANG-1 01B   
1 59706U 24087B   25110.33969691  .00000014  00000+0  00000+0 0  9996
2 59706  53.1271 187.9988 0013469 200.3284 159.6759  2.00561305  6471
ZHONGXING-3A            
1 60179U 24122A   25111.48093457 -.00000310  00000+0  00000+0 0  9997
2 60179   0.0388  38.6564 0000547 171.6496 274.2160  1.00269955  3097
ZHONGXING-4A            
1 60606U 24151A   25110.89281025 -.00000362  00000+0  00000+0 0  9995
2 60606   2.4067 275.6220 0002097 137.5884 235.6674  1.00270296  2526
ZIMSAT-2                
1 61783U 24199BA  25111.56972465  .00053888  00000+0  14890-2 0  9999
2 61783  97.3600 340.8806 0014582  15.2698 344.8983 15.36758740 72613
ZHONGXING-10R           
1 63075U 25036A   25111.53169677 -.00000348  00000+0  00000+0 0  9995
2 63075   0.0088 237.4886 0001818 175.6209 114.1366  1.00268666   710
